[Satellite]
VERSION=1.1
NAME=AO-85
NICKNAME=AO-85
TLE1=1 40967U 15058D   18018.22539907  .00000223  00000-0  43141-4 0 02122
TLE2=2 40967 064.7773 286.4599 0190770 001.5645 358.6014 14.75622874031524
